{
  "norad_id": 58222,
  "name": "STARLINK-30855",
  "history": [
    {
      "epoch": "2026-03-28T16:49:52.853088Z",
      "apogee_km": 483.9247799070745,
      "perigee_km": 482.14554074245825,
      "latitude_deg": -1.7101049247942632e-05,
      "longitude_deg": 8.535885812115623,
      "height_km": 482.85584467356887,
      "semi_major_axis_km": 6861.172160324766,
      "eccentricity": 0.00012966,
      "inclination_deg": 43.0027,
      "raan_deg": 87.1241,
      "arg_perigee_deg": 267.1796,
      "mean_anomaly_deg": 92.8907,
      "mean_motion_rev_day": 15.27584654
    },
    {
      "epoch": "2026-03-29T00:40:39.810720Z",
      "apogee_km": 483.8449366959876,
      "perigee_km": 482.22844417452234,
      "latitude_deg": -1.0891941430351217e-05,
      "longitude_deg": -111.32790372700465,
      "height_km": 482.88267885213656,
      "semi_major_axis_km": 6861.173690435255,
      "eccentricity": 0.0001178,
      "inclination_deg": 43.0026,
      "raan_deg": 85.2782,
      "arg_perigee_deg": 265.0887,
      "mean_anomaly_deg": 94.983,
      "mean_motion_rev_day": 15.27584143
    },
    {
      "epoch": "2026-03-30T00:13:00.286176Z",
      "apogee_km": 483.750246888294,
      "perigee_km": 482.2938972636548,
      "latitude_deg": 5.0577911043005664e-05,
      "longitude_deg": -110.920965310869,
      "height_km": 482.8463614768536,
      "semi_major_axis_km": 6861.159072075974,
      "eccentricity": 0.00010613,
      "inclination_deg": 43.0005,
      "raan_deg": 79.7371,
      "arg_perigee_deg": 266.2334,
      "mean_anomaly_deg": 93.8397,
      "mean_motion_rev_day": 15.27589025
    },
    {
      "epoch": "2026-03-30T06:29:38.398848Z",
      "apogee_km": 484.2098548325648,
      "perigee_km": 481.9634902021817,
      "latitude_deg": -1.2467015199318716e-05,
      "longitude_deg": 153.1864673183451,
      "height_km": 482.8211285414427,
      "semi_major_axis_km": 6861.2236725173725,
      "eccentricity": 0.0001637,
      "inclination_deg": 43.0031,
      "raan_deg": 78.2612,
      "arg_perigee_deg": 272.1834,
      "mean_anomaly_deg": 87.883,
      "mean_motion_rev_day": 15.27567451
    },
    {
      "epoch": "2026-03-30T15:54:34.873632Z",
      "apogee_km": 483.8096924934416,
      "perigee_km": 482.3446860397489,
      "latitude_deg": 3.8434971945418664e-05,
      "longitude_deg": 9.348621907016408,
      "height_km": 482.88748705873945,
      "semi_major_axis_km": 6861.214189266595,
      "eccentricity": 0.00010676,
      "inclination_deg": 43.0032,
      "raan_deg": 76.0453,
      "arg_perigee_deg": 267.3763,
      "mean_anomaly_deg": 92.6967,
      "mean_motion_rev_day": 15.27570618
    },
    {
      "epoch": "2026-03-31T15:26:55.350816Z",
      "apogee_km": 484.0376377851735,
      "perigee_km": 482.0314312284836,
      "latitude_deg": -3.005859963341577e-05,
      "longitude_deg": 9.756315305186854,
      "height_km": 482.749888821614,
      "semi_major_axis_km": 6861.171534506828,
      "eccentricity": 0.0001462,
      "inclination_deg": 43.0042,
      "raan_deg": 70.5051,
      "arg_perigee_deg": 273.5365,
      "mean_anomaly_deg": 86.5319,
      "mean_motion_rev_day": 15.27584863
    },
    {
      "epoch": "2026-04-01T14:59:16.366272Z",
      "apogee_km": 484.00676394157745,
      "perigee_km": 482.0952369646511,
      "latitude_deg": 5.691952356917283e-06,
      "longitude_deg": 10.163770895558146,
      "height_km": 482.9282643056831,
      "semi_major_axis_km": 6861.188000453114,
      "eccentricity": 0.0001393,
      "inclination_deg": 43.003,
      "raan_deg": 64.9668,
      "arg_perigee_deg": 263.9789,
      "mean_anomaly_deg": 96.0904,
      "mean_motion_rev_day": 15.27579364
    },
    {
      "epoch": "2026-04-02T06:40:50.437920Z",
      "apogee_km": 484.1156766972581,
      "perigee_km": 482.0055839780234,
      "latitude_deg": -3.442920932874058e-05,
      "longitude_deg": 130.43388327241968,
      "height_km": 482.8136933652912,
      "semi_major_axis_km": 6861.1976303376405,
      "eccentricity": 0.00015377,
      "inclination_deg": 43.0046,
      "raan_deg": 61.2734,
      "arg_perigee_deg": 271.3182,
      "mean_anomaly_deg": 88.7493,
      "mean_motion_rev_day": 15.27576148
    },
    {
      "epoch": "2026-04-03T06:13:10.142688Z",
      "apogee_km": 484.06665682124094,
      "perigee_km": 481.9300992645185,
      "latitude_deg": -1.944584468993915e-05,
      "longitude_deg": 130.8455920853594,
      "height_km": 482.78973204500176,
      "semi_major_axis_km": 6861.135378042879,
      "eccentricity": 0.0001557,
      "inclination_deg": 43.0052,
      "raan_deg": 55.7339,
      "arg_perigee_deg": 269.252,
      "mean_anomaly_deg": 90.8153,
      "mean_motion_rev_day": 15.27596938
    },
    {
      "epoch": "2026-04-04T21:27:04.664736Z",
      "apogee_km": 484.5632205150923,
      "perigee_km": 481.3851538131985,
      "latitude_deg": 3.08248882854371e-05,
      "longitude_deg": -108.47312367176498,
      "height_km": 483.03435452630026,
      "semi_major_axis_km": 6861.111187164145,
      "eccentricity": 0.0002316,
      "inclination_deg": 43.004,
      "raan_deg": 46.5035,
      "arg_perigee_deg": 259.7635,
      "mean_anomaly_deg": 100.2956,
      "mean_motion_rev_day": 15.27605017
    },
    {
      "epoch": "2026-04-05T13:08:40.578432Z",
      "apogee_km": 484.8884362320932,
      "perigee_km": 481.3192187536315,
      "latitude_deg": -1.847501729046336e-05,
      "longitude_deg": 11.7917809629044,
      "height_km": 483.5017888361109,
      "semi_major_axis_km": 6861.240827492862,
      "eccentricity": 0.0002601,
      "inclination_deg": 43.0023,
      "raan_deg": 42.8126,
      "arg_perigee_deg": 249.6604,
      "mean_anomaly_deg": 110.3968,
      "mean_motion_rev_day": 15.27561722
    },
    {
      "epoch": "2026-04-06T04:50:13.912224Z",
      "apogee_km": 484.3029192748445,
      "perigee_km": 481.85648384773594,
      "latitude_deg": 1.2085642241837483e-05,
      "longitude_deg": 132.0652495586661,
      "height_km": 483.2045205027585,
      "semi_major_axis_km": 6861.2167015612895,
      "eccentricity": 0.00017828,
      "inclination_deg": 43.0021,
      "raan_deg": 39.1194,
      "arg_perigee_deg": 253.4868,
      "mean_anomaly_deg": 106.5788,
      "mean_motion_rev_day": 15.27569779
    },
    {
      "epoch": "2026-04-07T04:22:35.164416Z",
      "apogee_km": 483.8237501580379,
      "perigee_km": 482.354349987153,
      "latitude_deg": -3.6629389814442266e-05,
      "longitude_deg": 132.47262219339584,
      "height_km": 483.1499026055382,
      "semi_major_axis_km": 6861.226050072595,
      "eccentricity": 0.00010708,
      "inclination_deg": 43.0019,
      "raan_deg": 33.5821,
      "arg_perigee_deg": 247.2322,
      "mean_anomaly_deg": 112.8416,
      "mean_motion_rev_day": 15.27566657
    },
    {
      "epoch": "2026-04-08T11:45:42.223392Z",
      "apogee_km": 484.33639370535275,
      "perigee_km": 481.7203685688328,
      "latitude_deg": 4.148205321566034e-05,
      "longitude_deg": 13.018440947843658,
      "height_km": 483.0600965867812,
      "semi_major_axis_km": 6861.1653811370925,
      "eccentricity": 0.00019064,
      "inclination_deg": 43.0021,
      "raan_deg": 26.1962,
      "arg_perigee_deg": 258.7828,
      "mean_anomaly_deg": 101.281,
      "mean_motion_rev_day": 15.27586918
    }
  ]
}